OBJECT_NAME,OBJECT_ID,EPOCH,MEAN_MOTION,ECCENTRICITY,INCLINATION,RA_OF_ASC_NODE,ARG_OF_PERICENTER,MEAN_ANOMALY,EPHEMERIS_TYPE,CLASSIFICATION_TYPE,NORAD_CAT_ID,ELEMENT_SET_NO,REV_AT_EPOCH,BSTAR,MEAN_MOTION_DOT,MEAN_MOTION_DDOT
STARLINK-37562,2026-114AC,2026-06-18T06:24:37.101312,15.78084583,.00016376,53.1575,196.7798,8.9510,351.1540,0,U,69208,999,494,.67532632E-3,.118383E-2,0
STARLINK-37682,2026-114AD,2026-06-17T22:27:58.210560,15.80973487,.00008021,53.1563,198.2625,117.1554,242.9551,0,U,69209,999,489,.13023584E-2,.26564E-2,0
STARLINK-37402,2026-114AE,2026-06-18T07:33:06.134112,15.80932881,.00007129,53.1563,196.3570,76.9342,283.1760,0,U,69210,999,495,.85624025E-3,.172182E-2,0
STARLINK-37613,2026-115A,2026-06-18T00:54:08.407584,15.49208527,.00010235,97.2839,186.1596,109.9870,250.1492,0,U,69211,999,479,.5383204E-3,.29316E-3,0
STARLINK-37713,2026-115B,2026-06-18T06:00:02.000160,15.49180860,.00018251,97.2849,186.5001,96.1011,303.2030,0,U,69212,999,486,-.14754698E-3,-.8105E-4,0
STARLINK-37716,2026-115C,2026-06-18T06:00:02.000160,15.49521527,.00019932,97.2845,186.5556,91.7121,77.8504,0,U,69213,999,486,-.14330365E-1,-.729641E-2,0
STARLINK-37620,2026-115D,2026-06-18T01:14:41.615520,15.49206571,.00005379,97.2836,186.1396,144.0165,216.1123,0,U,69214,999,479,.33051269E-3,.17937E-3,0
STARLINK-37700,2026-115E,2026-06-18T02:09:25.015104,15.49203730,.00012092,97.2832,186.0893,89.5163,270.6226,0,U,69215,999,479,.35779794E-3,.19427E-3,0
STARLINK-37766,2026-115F,2026-06-18T06:00:02.000160,15.49638015,.00017632,97.2853,186.6045,114.5993,171.3900,0,U,69216,999,486,-.25200091E-1,-.1263036E-1,0
STARLINK-37763,2026-115G,2026-06-18T06:00:02.000160,15.49182339,.00012843,97.2849,186.5510,88.1088,69.8181,0,U,69217,999,486,-.27358925E-4,-.1578E-4,0
STARLINK-37724,2026-115H,2026-06-18T06:00:02.000160,15.46063512,.00015786,97.2844,186.6512,106.4353,265.6134,0,U,69218,999,486,-.55647313E-1,-.2417834E-1,0
STARLINK-37758,2026-115J,2026-06-18T06:00:02.000160,15.46702464,.0001502,97.2842,186.6604,90.8381,304.6036,0,U,69219,999,486,-.52996624E-1,-.2360858E-1,0
STARLINK-37201,2026-115K,2026-06-18T06:00:02.000160,15.46160254,.00014635,97.2853,186.6577,103.5642,282.8346,0,U,69220,999,486,-.56058735E-1,-.2440906E-1,0
STARLINK-37728,2026-115L,2026-06-18T06:00:02.000160,15.49366448,.00009516,97.2911,186.6408,111.3599,256.0811,0,U,69221,999,486,-.87399237E-2,-.451948E-2,0
STARLINK-37760,2026-115M,2026-06-18T06:00:02.000160,15.47623778,.00014293,97.2851,186.6670,85.1303,334.0551,0,U,69222,999,486,-.54258699E-1,-.2480667E-1,0
STARLINK-37759,2026-115N,2026-06-18T06:00:02.000160,15.49183712,.00010782,97.2844,186.5551,96.6381,69.8234,0,U,69223,999,486,.17630102E-4,.868E-5,0
STARLINK-37725,2026-115P,2026-06-18T06:00:02.000160,15.49217095,.00010895,97.2847,186.5613,99.0012,80.0129,0,U,69224,999,486,.18784804E-3,.10149E-3,0
STARLINK-37770,2026-115Q,2026-06-18T06:00:02.000160,15.48740810,.00012248,97.2853,186.6804,85.2032,8.0490,0,U,69225,999,486,-.52594253E-1,-.2498199E-1,0
STARLINK-37736,2026-115R,2026-06-18T06:00:02.000160,15.49160438,.00009142,97.2849,186.6634,106.3036,315.4011,0,U,69226,999,486,.41914915E-3,.22749E-3,0
STARLINK-37737,2026-115S,2026-06-18T06:00:02.000160,15.49766122,.0001346,97.2855,186.6923,65.5114,55.9900,0,U,69227,999,488,-.37297837E-1,-.1833387E-1,0
STARLINK-37618,2026-115T,2026-06-18T06:00:02.000160,15.49185308,.00014686,97.2843,186.5514,90.2219,69.6970,0,U,69228,999,486,-.10028046E-3,-.554E-4,0
STARLINK-37679,2026-115U,2026-06-18T06:00:02.000160,15.49183195,.00008872,97.2843,186.5576,91.4793,82.8173,0,U,69229,999,486,.13584257E-4,.648E-5,0
STARLINK-37746,2026-115V,2026-06-18T06:00:02.000160,15.49156267,.00006572,97.2846,186.5385,159.5251,329.1640,0,U,69230,999,486,.65358399E-4,.3462E-4,0
STARLINK-37557,2026-115W,2026-06-17T23:50:36.948480,15.49220433,.00014776,97.2838,186.2210,93.7643,266.3777,0,U,69231,999,479,.69624952E-3,.38002E-3,0
STARLINK-37745,2026-115X,2026-06-18T06:00:02.000160,15.50857165,.00016239,97.2848,186.7192,64.7115,118.4776,0,U,69232,999,486,-.39302663E-1,-.2024431E-1,0
STARLINK-37739,2026-115Y,2026-06-18T06:00:02.000160,15.49180906,.00012645,97.2847,186.5338,79.4418,38.5201,0,U,69233,999,486,-.18505878E-3,-.10139E-3,0
STARLINK-37755,2026-115Z,2026-06-18T02:02:02.436288,15.75208871,.00007857,97.2827,186.5561,1.2534,358.8733,0,U,69234,999,482,.70805425E-3,.106898E-2,0
TJS-24,2026-116A,2026-06-18T03:05:05.665920,1.00272618,.00002949,0.0152,92.7175,300.5827,9.6260,0,U,69235,999,23,0,-.237E-5,0
STARLINK-37665,2026-117A,2026-06-17T16:30:12.149568,15.82055012,.00009565,53.1574,241.1111,104.2318,255.8812,0,U,69238,999,305,.79435866E-3,.168154E-2,0
STARLINK-37558,2026-117B,2026-06-17T16:28:50.149920,15.82094486,.000119,53.1571,241.1045,81.3276,278.7882,0,U,69239,999,305,.13795085E-2,.297538E-2,0
STARLINK-37680,2026-117C,2026-06-18T04:34:32.077920,15.82121723,.00013565,53.1576,238.5570,106.0153,254.1020,0,U,69240,999,313,.13390852E-2,.288872E-2,0
STARLINK-37742,2026-117D,2026-06-17T16:24:11.452896,15.82073638,.00008813,53.1575,241.0831,81.6710,278.4413,0,U,69241,999,305,.97371658E-3,.207408E-2,0
STARLINK-37718,2026-117E,2026-06-17T16:22:24.896640,15.82047041,.00008706,53.1575,241.0733,100.9457,259.1664,0,U,69242,999,305,.70540646E-3,.148853E-2,0
STARLINK-37735,2026-117F,2026-06-17T16:22:15.591360,15.82070089,.00009213,53.1576,241.0729,106.9398,253.1726,0,U,69243,999,305,.930631E-3,.197947E-2,0
STARLINK-37757,2026-117G,2026-06-17T16:18:48.778272,15.82040575,.0000956,53.1575,241.0560,96.9275,263.1857,0,U,69244,999,305,.59416159E-3,.124879E-2,0
STARLINK-37767,2026-117H,2026-06-17T16:12:40.422240,15.82055400,.00008818,53.1570,241.0274,84.5475,275.5649,0,U,69245,999,305,.99469544E-3,.211821E-2,0
STARLINK-35759,2026-117J,2026-06-17T16:11:41.213184,15.82057442,.00007879,53.1569,241.0219,93.2044,266.9069,0,U,69246,999,305,.93579314E-3,.198956E-2,0
STARLINK-37238,2026-117K,2026-06-17T16:05:17.489184,15.82036333,.00009733,53.1569,240.9915,98.1029,262.0105,0,U,69247,999,305,.57476999E-3,.120697E-2,0
STARLINK-37412,2026-117L,2026-06-17T16:00:26.220960,15.82046207,.00009417,53.1569,240.9688,105.8871,254.2256,0,U,69248,999,305,.68183075E-3,.143764E-2,0
STARLINK-37398,2026-117M,2026-06-17T16:07:08.707584,15.80923048,.00007952,53.1576,241.0003,92.0272,268.0842,0,U,69249,999,305,.61600197E-3,.122908E-2,0
STARLINK-37499,2026-117N,2026-06-17T15:57:57.937824,15.82034596,.00009269,53.1568,240.9564,86.1316,273.9813,0,U,69250,999,305,.58167983E-3,.122168E-2,0
STARLINK-37489,2026-117P,2026-06-17T15:55:25.752000,15.82067811,.00007946,53.1571,240.9461,102.7922,257.3191,0,U,69251,999,305,.97205254E-3,.206986E-2,0
STARLINK-37434,2026-117Q,2026-06-17T15:51:09.165600,15.82033365,.000093,53.1569,240.9243,106.2645,253.8480,0,U,69252,999,305,.56723585E-3,.119067E-2,0
STARLINK-37368,2026-117R,2026-06-18T05:20:10.996800,15.82130013,.00008005,53.1569,238.0258,153.3448,206.7616,0,U,69253,999,314,.12987437E-2,.27997E-2,0
STARLINK-37517,2026-117S,2026-06-17T15:39:32.424768,15.82044264,.00008092,53.1570,240.8700,131.6385,228.4708,0,U,69254,999,305,.72303184E-3,.152638E-2,0
STARLINK-37378,2026-117T,2026-06-18T05:17:48.353856,15.82192714,.00017666,53.1566,238.0138,224.7399,135.3482,0,U,69255,999,314,.20376214E-2,.449766E-2,0
STARLINK-37396,2026-117U,2026-06-17T17:06:30.370464,15.82038611,.00008021,53.1567,240.5317,85.3160,274.7954,0,U,69256,999,306,.6239703E-3,.131265E-2,0
STARLINK-37508,2026-117V,2026-06-18T05:18:25.928352,15.81028826,.00010558,53.1570,238.0137,129.9172,230.1943,0,U,69257,999,314,.14006142E-2,.287186E-2,0
STARLINK-37276,2026-117W,2026-06-18T06:00:02.000160,15.80876780,.0001314,53.1573,237.5502,109.4640,208.6416,0,U,69258,999,434,-.50112841E-4,-.1058E-3,0
STARLINK-37518,2026-117X,2026-06-17T16:33:06.193728,15.80892884,.00016128,53.1567,240.3730,58.4994,301.6186,0,U,69259,999,306,.36233318E-3,.71475E-3,0
STARLINK-37478,2026-117Y,2026-06-17T16:33:25.371072,15.80927419,.00009173,53.1571,240.3756,83.9366,276.1761,0,U,69260,999,306,.59067764E-3,.117779E-2,0
STARLINK-37506,2026-117Z,2026-06-17T16:32:43.328832,15.80927251,.00012532,53.1568,240.3714,75.3017,284.8145,0,U,69261,999,306,.6907139E-3,.138173E-2,0
STARLINK-37503,2026-117AA,2026-06-18T04:40:38.302464,15.81056762,.0001149,53.1570,237.8352,95.9444,264.1709,0,U,69262,999,314,.19946559E-2,.416065E-2,0
STARLINK-37502,2026-117AB,2026-06-18T00:00:02.999808,15.80854465,.00010516,53.1573,238.8050,94.1995,239.2630,0,U,69263,999,431,.13530487E-3,.26064E-3,0
STARLINK-37486,2026-117AC,2026-06-17T16:29:51.196704,15.80917642,.00007577,53.1571,240.3569,68.4684,291.6420,0,U,69264,999,306,.55429288E-3,.110335E-2,0
STARLINK-37435,2026-117AD,2026-06-18T00:00:02.999808,15.80836286,.00010115,53.1573,238.8071,86.9140,245.0304,0,U,69265,999,431,.29756528E-3,.58329E-3,0
STARLINK-37464,2026-117AE,2026-06-17T16:25:04.563840,15.82023769,.00008542,53.1569,240.3341,71.4665,288.6451,0,U,69266,999,306,.49784585E-3,.104186E-2,0
KUIPER-00282,2026-118A,2026-06-18T04:46:59.462112,15.34202665,.00121024,51.8596,48.6959,185.3853,174.7004,0,U,69267,999,413,.49897717E-3,.16461E-3,0
KUIPER-00383,2026-118B,2026-06-18T06:00:02.000160,15.34303196,.00109074,51.8596,48.4182,188.0038,109.5466,0,U,69268,999,357,-.30579334E-3,-.107E-3,0
KUIPER-00527,2026-118C,2026-06-18T04:35:22.111296,15.34758745,.00101049,51.8625,48.6481,177.6712,182.4322,0,U,69269,999,413,.52233418E-3,.17553E-3,0
KUIPER-00562,2026-118D,2026-06-18T03:43:58.855584,15.38654885,.00017681,51.8719,48.4190,120.2190,239.8972,0,U,69270,999,413,.47928356E-3,.1824E-3,0
KUIPER-00570,2026-118E,2026-06-18T03:05:04.168608,15.34624451,.00115816,51.8585,48.9713,188.1334,171.9465,0,U,69271,999,412,.52045047E-3,.17421E-3,0
KUIPER-00572,2026-118F,2026-06-18T04:13:11.885664,15.37035814,.0007137,51.8674,48.5550,174.2992,185.8077,0,U,69272,999,413,.50786356E-3,.18357E-3,0
KUIPER-00581,2026-118G,2026-06-18T04:19:12.392256,15.36664986,.00088037,51.8660,48.5803,178.0144,182.0879,0,U,69273,999,422,.46786086E-3,.16679E-3,0
